SL-8 R/B                
1 15483U 85006B   26162.54157253  .00000184  00000+0  69595-4 0  9999
2 15483  74.0459  88.4528 0018677 336.5824 201.2054 14.37832583167515
SL-12 R/B(2)            
1 15772U 85042D   26162.61248230 -.00000036  00000+0  54980-5 0  9994
2 15772  71.1082 249.2940 0035993 336.2322 123.4810 14.22004899127742
SL-14 R/B               
1 15945U 85069B   26162.64950719  .00000412  00000+0  43705-4 0  9999
2 15945  82.5267 296.5742 0017446 238.7045 121.2464 14.86511387186797
SL-16 R/B               
1 16182U 85097B   26162.62250862 -.00000222  00000+0 -87437-4 0  9995
2 16182  71.0037 302.7934 0005485 122.9969 317.9493 14.16611674100538
SL-14 R/B               
1 16496U 86006B   26162.53349310  .00000523  00000+0  52884-4 0  9991
2 16496  82.5261 171.4338 0075351 322.5279  37.0697 14.86939992163158
COSMOS 1743             
1 16719U 86034A   26162.52612651  .00045185  00000+0  43329-3 0  9996
2 16719  82.5272 334.7502 0003723 297.9472  62.1411 15.66440250194902
SL-14 R/B               
1 16792U 86046B   26162.63007486  .00000340  00000+0  36386-4 0  9996
2 16792  82.4816 351.4272 0021587 278.1802  81.6965 14.85667365140350
SL-14 R/B               
1 16882U 86055B   26162.62254372  .00000358  00000+0  38378-4 0  9995
2 16882  82.5208  38.3649 0019557  25.7424  35.4418 14.85719418133310
AJISAI (EGS)            
1 16908U 86061A   26162.60525860 -.00000076  00000+0  14757-3 0  9994
2 16908  50.0062 164.5596 0011245 166.4205 312.1593 12.44516804479696
SL-14 R/B               
1 17567U 87024B   26162.62936806  .00000348  00000+0  36783-4 0  9999
2 17567  82.5281   4.4750 0017083 313.1100  46.8687 14.86209584102089
COSMOS 1833             
1 17589U 87027A   26162.37431986  .00000319  00000+0  19606-3 0  9999
2 17589  70.9166 129.0867 0022658  64.7689 295.5777 14.13045610 23559
SL-16 R/B               
1 17590U 87027B   26162.56939004 -.00000036  00000+0  59456-5 0  9992
2 17590  71.0034  78.6667 0006292 318.9496  41.1154 14.17172631 28647
SL-14 R/B               
1 17912U 87038B   26162.60524731  .00000314  00000+0  33494-4 0  9995
2 17912  82.5012 208.3301 0018405 210.1729 149.8429 14.85442014 93177
COSMOS 1844             
1 17973U 87041A   26162.52072506 -.00000169  00000+0 -62287-4 0  9997
2 17973  70.8977 196.2601 0033151 243.7540 116.0173 14.14569188 16856
SL-14 R/B               
1 18153U 87055B   26162.56575480  .00000362  00000+0  38750-4 0  9997
2 18153  82.4996 260.5280 0021997  65.1916 295.1585 14.85707287 83877
COSMOS 1867             
1 18187U 87060A   26162.40462919 -.00000066  00000+0  12765-4 0  9995
2 18187  65.0116  44.2533 0016410 282.1424  77.7822 14.31515147 33351
SL-14 R/B               
1 18749U 88001B   26162.56736727  .00000372  00000+0  40138-4 0  9997
2 18749  82.5129 107.0604 0016540 289.8975  70.0458 14.85605616 55961
COSMOS 1933             
1 18958U 88020A   26162.50292749  .00002849  00000+0  13599-3 0  9996
2 18958  82.5116 158.0641 0002880 208.9825 151.1250 15.18677989 64469
SL-3 R/B                
1 19046U 88032B   26162.58467001  .00003700  00000+0  16991-3 0  9997
2 19046  97.5249 145.6309 0023628 266.0456  93.8078 15.20798487 66374
SL-16 R/B               
1 19120U 88039B   26162.62481028 -.00000078  00000+0 -13907-4 0  9999
2 19120  71.0143 229.9198 0022568 201.3504 158.6682 14.19629562971715
COSMOS 1953             
1 19210U 88050A   26162.45938929  .00006666  00000+0  22874-3 0  9999
2 19210  82.5084  63.8096 0011717 143.9760 216.2272 15.29896295 52118
SL-8 R/B                
1 19257U 88053B   26162.58582360  .00000156  00000+0  58899-4 0  9996
2 19257  74.0479 299.3825 0019174  96.7902 339.8024 14.38965391990107
COSMOS 1975             
1 19573U 88093A   26162.59262888  .00006514  00000+0  22805-3 0  9993
2 19573  82.5202  23.3300 0010732 191.1160 168.9844 15.29255676 33755
SL-14 R/B               
1 19574U 88093B   26162.48023946  .00000369  00000+0  39502-4 0  9997
2 19574  82.5306 314.0029 0022193  88.0375 330.3322 14.85737359 14945
SL-16 R/B               
1 19650U 88102B   26162.56640186 -.00000212  00000+0 -82828-4 0  9991
2 19650  71.0004 313.9662 0016014 233.3195 126.6457 14.16165995940183
INTERCOSMOS 24          
1 20261U 89080A   26162.61574322  .00000817  00000+0  23131-3 0  9991
2 20261  82.6071  43.2699 1188403  74.8214 298.0977 12.59652890678629
SL-14 R/B               
1 20262U 89080C   26162.56255462  .00000333  00000+0  99290-4 0  9990
2 20262  82.5925 112.9210 1229054 330.2731  23.3619 12.50567357671888
DELTA 1 R/B             
1 20323U 89089B   26162.56348469  .00000292  00000+0  80821-4 0  9991
2 20323  97.0638 355.0216 0068740 184.7105 175.3454 14.50727638909345
ARIANE 40 R/B           
1 20443U 90005H   26162.13818111  .00000197  00000+0  75942-4 0  9995
2 20443  98.2960 219.9420 0008827 285.2745  74.7467 14.39924236906254
DELTA 2 R/B(1)          
1 20453U 90008B   26162.58910468  .00082334  00000+0  62951-3 0  9994
2 20453  35.6002 273.0862 0066139  61.0477 299.6874 15.67947352940827
